ISS (NAUKA)             
1 49044U 21066A   25184.57244023  .00005600  00000+0  10472-3 0  9990
2 49044  51.6344 225.8637 0002404 328.2751  31.8093 15.50358139223626
